{
    "links": {
        "self": "http://www.neowsapp.com/rest/v1/neo/3120893?api_key=iIulBulltgU6a56xZRHN4H3l9WmuAYTsLGpBGhQ2"
    },
    "id": "3120893",
    "neo_reference_id": "3120893",
    "name": "(2002 GF8)",
    "designation": "2002 GF8",
    "nasa_jpl_url": "http://ssd.jpl.nasa.gov/sbdb.cgi?sstr=3120893",
    "absolute_magnitude_h": 20.6,
    "estimated_diameter": {
        "kilometers": {
            "estimated_diameter_min": 0.2016299194,
            "estimated_diameter_max": 0.4508582062
        },
        "meters": {
            "estimated_diameter_min": 201.6299194428,
            "estimated_diameter_max": 450.8582061718
        },
        "miles": {
            "estimated_diameter_min": 0.1252869847,
            "estimated_diameter_max": 0.2801502144
        },
        "feet": {
            "estimated_diameter_min": 661.5155049046,
            "estimated_diameter_max": 1479.1936371367
        }
    },
    "is_potentially_hazardous_asteroid": false,
    "close_approach_data": [
        {
            "close_approach_date": "1992-04-03",
            "close_approach_date_full": "1992-Apr-03 17:31",
            "epoch_date_close_approach": 702322260000,
            "relative_velocity": {
                "kilometers_per_second": "9.7001018644",
                "kilometers_per_hour": "34920.3667119294",
                "miles_per_hour": "21698.1578605319"
            },
            "miss_distance": {
                "astronomical": "0.0842619202",
                "lunar": "32.7778869578",
                "kilometers": "12605403.784029974",
                "miles": "7832634.7072986812"
            },
            "orbiting_body": "Mars"
        },
        {
            "close_approach_date": "2002-05-31",
            "close_approach_date_full": "2002-May-31 21:25",
            "epoch_date_close_approach": 1022880300000,
            "relative_velocity": {
                "kilometers_per_second": "3.2764876347",
                "kilometers_per_hour": "11795.3554848468",
                "miles_per_hour": "7329.175190015"
            },
            "miss_distance": {
                "astronomical": "0.2903212986",
                "lunar": "112.9349851554",
                "kilometers": "43431447.886193982",
                "miles": "26987050.3103296716"
            },
            "orbiting_body": "Earth"
        },
        {
            "close_approach_date": "2057-06-01",
            "close_approach_date_full": "2057-Jun-01 14:05",
            "epoch_date_close_approach": 2758629900000,
            "relative_velocity": {
                "kilometers_per_second": "9.4064890314",
                "kilometers_per_hour": "33863.3605128631",
                "miles_per_hour": "21041.3753142288"
            },
            "miss_distance": {
                "astronomical": "0.0212499774",
                "lunar": "8.2662412086",
                "kilometers": "3178951.356588138",
                "miles": "1975308.7766987844"
            },
            "orbiting_body": "Mars"
        }
    ],
    "orbital_data": {
        "orbit_id": "19",
        "orbit_determination_date": "2017-04-06 09:15:14",
        "first_observation_date": "2002-04-09",
        "last_observation_date": "2002-07-02",
        "data_arc_in_days": 84,
        "observations_used": 67,
        "orbit_uncertainty": "5",
        "minimum_orbit_intersection": ".24772",
        "jupiter_tisserand_invariant": "3.455",
        "epoch_osculation": "2459000.5",
        "eccentricity": ".4529489706790391",
        "semi_major_axis": "2.283781270786795",
        "inclination": "4.885344594148829",
        "ascending_node_longitude": "20.24987266499716",
        "orbital_period": "1260.608372921341",
        "perihelion_distance": "1.249344894927849",
        "perihelion_argument": "237.1393749695538",
        "aphelion_distance": "3.318217646645742",
        "perihelion_time": "2458745.715872572881",
        "mean_anomaly": "72.76033369602727",
        "mean_motion": ".2855763992473997",
        "equinox": "J2000",
        "orbit_class": {
            "orbit_class_type": "AMO",
            "orbit_class_description": "Near-Earth asteroid orbits similar to that of 1221 Amor",
            "orbit_class_range": "1.017 AU < q (perihelion) < 1.3 AU"
        }
    },
    "is_sentry_object": false
}